     2.100          NAVIGATION                              RINEX VERSION / TYPE
fic2rin                                 01/28/2013 00:13:38 PGM / RUN BY / DATE
                                                            END OF HEADER
15 13  1 27 20  0  0.0 -.106470193714D-03 -.113686837722D-11  .000000000000D+00
     .450000000000D+02 -.316875000000D+02  .496627829400D-08  .207930488541D+01
    -.144541263580D-05  .527654320467D-02  .106021761894D-04  .515370660210D+04
     .720000000000D+05 -.707805156708D-07  .273496535561D+01  .782310962677D-07
     .942518053534D+00  .167093750000D+03  .123452047690D+00 -.814676791701D-08
    -.632883504995D-09  .100000000000D+01  .172500000000D+04  .000000000000D+00
     .240000000000D+01  .000000000000D+00 -.102445483208D-07  .450000000000D+02
     .648060000000D+05  .400000000000D+01
16 13  1 27 20  0  0.0 -.252063386142D-03 -.227373675443D-12  .000000000000D+00
     .850000000000D+02 -.158437500000D+02  .431553690229D-08 -.254989845488D+01
    -.776723027229D-06  .687068747357D-02  .140629708767D-05  .515356892204D+04
     .720000000000D+05 -.577419996262D-07 -.137980976170D+01 -.540167093277D-07
     .983171032837D+00  .366968750000D+03  .289336815468D-01 -.821534220198D-08
    -.367872466222D-10  .100000000000D+01  .172500000000D+04  .000000000000D+00
     .240000000000D+01  .000000000000D+00 -.977888703346D-08  .850000000000D+02
     .648060000000D+05  .400000000000D+01
17 13  1 27 20  0  0.0  .555152073503D-04 -.375166564481D-11  .000000000000D+00
     .350000000000D+02 -.131812500000D+03  .407088385437D-08  .270658815640D+01
    -.672601163387D-05  .807265623007D-02  .997446477413D-05  .515379772758D+04
     .720000000000D+05  .484287738800D-07 -.341507897403D+00 -.108033418655D-06
     .964972241230D+00  .187500000000D+03 -.224909004587D+01 -.777032366517D-08
    -.187864968187D-09  .100000000000D+01  .172500000000D+04  .000000000000D+00
     .240000000000D+01  .000000000000D+00 -.107102096081D-07  .350000000000D+02
     .648060000000D+05  .400000000000D+01
18 13  1 27 20  0  0.0  .236484687775D-03  .181898940355D-11  .000000000000D+00
     .320000000000D+02 -.209375000000D+01  .576916888047D-08 -.206199768970D+01
    -.109896063805D-06  .136902783997D-01  .341795384884D-05  .515375182152D+04
     .720000000000D+05  .197440385818D-06  .171728587151D+01  .186264514923D-08
     .927496266491D+00  .291593750000D+03 -.212929569860D+01 -.854892752572D-08
     .173935816553D-09  .100000000000D+01  .172500000000D+04  .000000000000D+00
     .240000000000D+01  .000000000000D+00 -.107102096081D-07  .320000000000D+02
     .648060000000D+05  .400000000000D+01
19 13  1 27 20  0  0.0 -.343553256243D-03 -.329691829393D-11  .000000000000D+00
     .350000000000D+02 -.106812500000D+03  .423981946264D-08  .202397868709D+01
    -.551715493202D-05  .885688897688D-02  .989995896816D-05  .515366800880D+04
     .720000000000D+05 -.124797224998D-06 -.289231129878D+00  .130385160446D-06
     .962272165515D+00  .189531250000D+03  .276372504207D+00 -.793818780024D-08
    -.216080429189D-09  .100000000000D+01  .172500000000D+04  .000000000000D+00
     .240000000000D+01  .000000000000D+00 -.144354999065D-07  .350000000000D+02
     .648060000000D+05  .400000000000D+01
20 13  1 27 20  0  0.0  .817212276161D-04  .147792889038D-11  .000000000000D+00
     .840000000000D+02  .387500000000D+01  .591060334321D-08 -.147679744432D+01
     .368803739548D-06  .557601789478D-02  .380165874958D-05  .515380711937D+04
     .720000000000D+05  .726431608200D-07  .166370094654D+01  .100582838058D-06
     .928154357263D+00  .290281250000D+03  .128238680975D+01 -.874607859499D-08
     .925038531568D-10  .100000000000D+01  .172500000000D+04  .000000000000D+00
     .240000000000D+01  .000000000000D+00 -.791624188423D-08  .840000000000D+02
     .648060000000D+05  .400000000000D+01
22 13  1 27 20  0  0.0  .156839378178D-03  .102318153949D-11  .000000000000D+00
     .740000000000D+02 -.875000000000D+00  .588238788221D-08 -.270784775812D+01
    -.154599547386D-06  .617200590204D-02  .375509262085D-05  .515365266228D+04
     .720000000000D+05  .160187482834D-06  .172014537018D+01 -.391155481339D-07
     .925235586999D+00  .287625000000D+03 -.203173106157D+01 -.869571935447D-08
     .564309220030D-10  .100000000000D+01  .172500000000D+04  .000000000000D+00
     .340000000000D+01  .000000000000D+00 -.172294676304D-07  .740000000000D+02
     .648060000000D+05  .400000000000D+01
23 13  1 27 20  0  0.0  .119691248983D-03 -.375166564481D-11  .000000000000D+00
     .420000000000D+02 -.145000000000D+02  .463912180947D-08  .159056997751D+01
    -.556930899620D-06  .816357787699D-02  .107549130917D-04  .515376101875D+04
     .720000000000D+05  .502914190292D-07  .277431161699D+01  .163912773132D-06
     .957426562442D+00  .172562500000D+03 -.291749735286D+01 -.802354849872D-08
    -.651812864908D-09  .100000000000D+01  .172500000000D+04  .000000000000D+00
     .240000000000D+01  .000000000000D+00 -.204890966415D-07  .420000000000D+02
     .648060000000D+05  .400000000000D+01
24 13  1 27 20  0  0.0 -.610016286373D-07 -.682121026330D-12  .000000000000D+00
     .250000000000D+02  .113062500000D+03  .444768526394D-08  .101096620278D+01
     .595487654209D-05  .582117587328D-03  .871159136295D-05  .515371020889D+04
     .720000000000D+05  .223517417908D-07 -.248293289265D+01 -.428408384323D-07
     .959480759825D+00  .206562500000D+03  .923332302782D-02 -.806462163815D-08
     .163221084528D-09  .100000000000D+01  .172500000000D+04  .000000000000D+00
     .240000000000D+01  .000000000000D+00  .419095158577D-08  .250000000000D+02
     .648060000000D+05  .400000000000D+01
25 13  1 27 20  0  0.0  .658822245896D-04  .272848410532D-11  .000000000000D+00
     .900000000000D+02  .150000000000D+01  .455804700381D-08 -.124038109789D+01
     .558793544769D-07  .206850271206D-02  .127218663692D-05  .515359301758D+04
     .720000000000D+05  .912696123123D-07 -.143504821127D+01 -.260770320892D-07
     .971267738023D+00  .362562500000D+03  .565451091228D+00 -.837534886690D-08
    -.632169189527D-10  .100000000000D+01  .172500000000D+04  .000000000000D+00
     .240000000000D+01  .000000000000D+00  .512227416039D-08  .900000000000D+02
     .648060000000D+05  .400000000000D+01
27 13  1 27 20  0  0.0 -.190990045667D-03  .363797880709D-11  .000000000000D+00
     .400000000000D+02 -.459375000000D+01  .566737892622D-08 -.264400398846D+01
    -.186264514923D-06  .575327791739D-02  .123493373394D-05  .515362809944D+04
     .720000000000D+05  .409781932831D-07 -.141898064261D+01 -.335276126862D-07
     .976125477464D+00  .365187500000D+03  .840133287221D+00 -.823427156189D-08
    -.250010413937D-11  .100000000000D+01  .172500000000D+04  .000000000000D+00
     .240000000000D+01  .630000000000D+02 -.190921127796D-07  .400000000000D+02
     .648060000000D+05  .400000000000D+01
28 13  1 27 20  0  0.0  .227341894060D-03  .341060513165D-11  .000000000000D+00
     .800000000000D+02 -.161562500000D+02  .428482133715D-08 -.279861027959D+01
    -.830739736557D-06  .186620355817D-01  .590458512306D-06  .515363443565D+04
     .720000000000D+05  .186264514923D-06 -.137340414375D+01 -.353902578354D-07
     .981591581629D+00  .378843750000D+03 -.178828533525D+01 -.799711882638D-08
    -.110718897601D-10  .100000000000D+01  .172500000000D+04  .000000000000D+00
     .240000000000D+01  .000000000000D+00 -.107102096081D-07  .800000000000D+02
     .648060000000D+05  .400000000000D+01
29 13  1 27 20  0  0.0  .402153003961D-03  .386535248253D-11  .000000000000D+00
     .134000000000D+03 -.113500000000D+03  .416017328792D-08 -.668880372272D+00
    -.582449138165D-05  .187749601901D-02  .914558768272D-05  .515371323395D+04
     .720000000000D+05 -.102445483208D-06 -.332801390194D+00  .204890966415D-07
     .965580570844D+00  .206781250000D+03 -.111007591244D+01 -.789425739894D-08
    -.158935191717D-09  .100000000000D+01  .172500000000D+04  .000000000000D+00
     .240000000000D+01  .000000000000D+00 -.931322574615D-08  .134000000000D+03
     .648060000000D+05  .400000000000D+01
30 13  1 27 20  0  0.0 -.240946188569D-03  .109139364213D-10  .000000000000D+00
     .110000000000D+03  .202500000000D+02  .470376735936D-08  .268471412690D+01
     .106915831566D-05  .108436725568D-01  .746920704842D-06  .515361317635D+04
     .720000000000D+05  .150874257088D-06 -.152823566721D+01 -.186264514923D-08
     .962347815935D+00  .365593750000D+03  .161165042369D+01 -.829213111483D-08
    -.146434671020D-10  .100000000000D+01  .172500000000D+04  .000000000000D+00
     .136500000000D+02  .000000000000D+00 -.465661287308D-08  .110000000000D+03
     .648060000000D+05  .400000000000D+01
31 13  1 27 20  0  0.0  .299693085253D-03  .181898940355D-11  .000000000000D+00
     .780000000000D+02  .106593750000D+03  .393766401951D-08 -.136580668059D+00
     .554136931896D-05  .813138962258D-02  .868178904057D-05  .515352831841D+04
     .720000000000D+05 -.260770320892D-07 -.245241372097D+01 -.132247805595D-06
     .980900600070D+00  .225625000000D+03 -.790417460197D+00 -.791997275580D-08
     .188579283656D-09  .100000000000D+01  .172500000000D+04  .000000000000D+00
     .340000000000D+01  .000000000000D+00 -.135041773319D-07  .780000000000D+02
     .648060000000D+05  .400000000000D+01
32 13  1 27 20  0  0.0 -.530131626874D-03 -.352429196937D-11  .000000000000D+00
     .102000000000D+03 -.122500000000D+02  .547879964257D-08  .509092118096D+00
    -.691041350365D-06  .116319817025D-01  .411085784435D-05  .515375390816D+04
     .720000000000D+05  .182539224625D-06  .180109789509D+01 -.134110450745D-06
     .949450408306D+00  .295812500000D+03 -.407066840494D+00 -.863250243552D-08
    -.625026034843D-10  .100000000000D+01  .172500000000D+04  .000000000000D+00
     .340000000000D+01  .000000000000D+00 -.325962901115D-08  .102000000000D+03
     .648060000000D+05  .400000000000D+01
